0 FENGYUN 1C DEB
1 36172U 99025DSV 13283.86590163  .00001170  00000-0  10245-2 0  1545
2 36172 098.1650 312.5510 0226209 268.6903 088.8407 13.76331360286556
0 FENGYUN 1C DEB
1 36172U 99025DSV 13285.31983705  .00001150  00000-0  10042-2 0  1559
2 36172 098.1624 313.7939 0228541 264.6822 092.8657 13.76335112286755
0 FENGYUN 1C DEB
1 36172U 99025DSV 13288.88196863  .00001333  00000-0  11636-2 0  1569
2 36172 098.1605 316.8535 0225689 256.3393 101.2647 13.76348227287241
0 FENGYUN 1C DEB
1 36172U 99025DSV 13291.86251437  .00001277  00000-0  11137-2 0  1574
2 36172 098.1630 319.4139 0226897 247.5137 110.1849 13.76354791287659
0 FENGYUN 1C DEB
1 36172U 99025DSV 13295.86080413  .00001463  00000-0  12685-2 0  1589
2 36172 098.1609 322.8569 0228053 235.2151 122.8300 13.76369524288200
